start=new Date('2022-04-22T00:00:00.000Z').valueOf();
sats=[{"RA_OF_ASC_NODE":"113.7599","MEAN_MOTION_DOT":"0.00049247","LAUNCH_DATE":"2021-11-13","RCS_SIZE":"LARGE","EPOCH":"2022-04-21T22:00:00.999936","REV_AT_EPOCH":"358","EPHEMERIS_TYPE":"0","TIME_SYSTEM":"UTC","PERIOD":"95.438","SITE":"AFETR","ECCENTRICITY":"0.00025190","INCLINATION":"53.2181","SEMIMAJOR_AXIS":"6917.925","OBJECT_ID":"2021-104B","MEAN_MOTION_DDOT":"0.0000000000000","CENTER_NAME":"EARTH","GP_ID":"201776420","BSTAR":"0.00309200000000","REF_FRAME":"TEME","OBJECT_TYPE":"PAYLOAD","MEAN_ANOMALY":"277.2636","ELEMENT_SET_NO":"999","FILE":"3410450","MEAN_MOTION":"15.08825548","APOAPSIS":"541.532","ARG_OF_PERICENTER":"42.2563","PERIAPSIS":"538.047","CLASSIFICATION_TYPE":"U","DECAY_DATE":null,"NORAD_CAT_ID":"49409","OBJECT_NAME":"STARLINK-3075","TLE_LINE1":"1 49409U 21104B   22111.91667824  .00049247  00000-0  30920-2 0  9996","COUNTRY_CODE":"US","TLE_LINE2":"2 49409  53.2181 113.7599 0002519  42.2563 277.2636 15.08825548  3587","MEAN_ELEMENT_THEORY":"SGP4"},{"TLE_LINE1":"1 49410U 21104C   22111.91667824  .00050206  00000-0  31517-2 0  9998","TLE_LINE2":"2 49410  53.2154 113.7600 0002462  33.4613 326.0947 15.08822611  3594","COUNTRY_CODE":"US","OBJECT_NAME":"STARLINK-3147","MEAN_ELEMENT_THEORY":"SGP4","ARG_OF_PERICENTER":"33.4613","PERIAPSIS":"538.095","APOAPSIS":"541.502","DECAY_DATE":null,"NORAD_CAT_ID":"49410","CLASSIFICATION_TYPE":"U","REF_FRAME":"TEME","OBJECT_TYPE":"PAYLOAD","MEAN_ANOMALY":"326.0947","BSTAR":"0.00315170000000","MEAN_MOTION":"15.08822611","FILE":"3410450","ELEMENT_SET_NO":"999","GP_ID":"201777672","MEAN_MOTION_DDOT":"0.0000000000000","CENTER_NAME":"EARTH","OBJECT_ID":"2021-104C","SEMIMAJOR_AXIS":"6917.934","SITE":"AFETR","PERIOD":"95.439","INCLINATION":"53.2154","ECCENTRICITY":"0.00024620","EPOCH":"2022-04-21T22:00:00.999936","RCS_SIZE":"LARGE","EPHEMERIS_TYPE":"0","TIME_SYSTEM":"UTC","REV_AT_EPOCH":"359","RA_OF_ASC_NODE":"113.7600","LAUNCH_DATE":"2021-11-13","MEAN_MOTION_DOT":"0.00050206"},{"BSTAR":"-0.00006938200000","REF_FRAME":"TEME","OBJECT_TYPE":"PAYLOAD","MEAN_ANOMALY":"352.4483","ELEMENT_SET_NO":"999","MEAN_MOTION":"15.08847750","FILE":"3410450","GP_ID":"201777417","OBJECT_NAME":"STARLINK-3162","TLE_LINE1":"1 49411U 21104D   22111.91667824 -.00001393  00000-0 -69382-4 0  9997","TLE_LINE2":"2 49411  53.2154 103.7528 0002280  42.1096 352.4483 15.08847750  3592","COUNTRY_CODE":"US","MEAN_ELEMENT_THEORY":"SGP4","APOAPSIS":"541.299","ARG_OF_PERICENTER":"42.1096","PERIAPSIS":"538.144","NORAD_CAT_ID":"49411","DECAY_DATE":null,"CLASSIFICATION_TYPE":"U","RCS_SIZE":"LARGE","EPOCH":"2022-04-21T22:00:00.999936","REV_AT_EPOCH":"359","TIME_SYSTEM":"UTC","EPHEMERIS_TYPE":"0","RA_OF_ASC_NODE":"103.7528","MEAN_MOTION_DOT":"-0.00001393","LAUNCH_DATE":"2021-11-13","SEMIMAJOR_AXIS":"6917.857","OBJECT_ID":"2021-104D","MEAN_MOTION_DDOT":"0.0000000000000","CENTER_NAME":"EARTH","PERIOD":"95.437","SITE":"AFETR","ECCENTRICITY":"0.00022800","INCLINATION":"53.2154"},{"SEMIMAJOR_AXIS":"6917.965","OBJECT_ID":"2021-104E","CENTER_NAME":"EARTH","MEAN_MOTION_DDOT":"0.0000000000000","PERIOD":"95.439","SITE":"AFETR","ECCENTRICITY":"0.00024670","INCLINATION":"53.2160","RCS_SIZE":"LARGE","EPOCH":"2022-04-21T22:00:00.999936","REV_AT_EPOCH":"358","EPHEMERIS_TYPE":"0","TIME_SYSTEM":"UTC","RA_OF_ASC_NODE":"113.7572","MEAN_MOTION_DOT":"0.00050105","LAUNCH_DATE":"2021-11-13","OBJECT_NAME":"STARLINK-3144","TLE_LINE2":"2 49412  53.2160 113.7572 0002467  35.6398 303.9019 15.08812335  3585","COUNTRY_CODE":"US","TLE_LINE1":"1 49412U 21104E   22111.91667824  .00050105  00000-0  31463-2 0  9998","MEAN_ELEMENT_THEORY":"SGP4","APOAPSIS":"541.537","PERIAPSIS":"538.123","ARG_OF_PERICENTER":"35.6398","CLASSIFICATION_TYPE":"U","DECAY_DATE":null,"NORAD_CAT_ID":"49412","BSTAR":"0.00314630000000","OBJECT_TYPE":"PAYLOAD","REF_FRAME":"TEME","MEAN_ANOMALY":"303.9019","ELEMENT_SET_NO":"999","MEAN_MOTION":"15.08812335","FILE":"3410450","GP_ID":"201776671"},{"REV_AT_EPOCH":"359","TIME_SYSTEM":"UTC","EPHEMERIS_TYPE":"0","RCS_SIZE":"LARGE","EPOCH":"2022-04-21T22:00:00.999936","MEAN_MOTION_DOT":"0.00045327","LAUNCH_DATE":"2021-11-13","RA_OF_ASC_NODE":"103.7606","SEMIMAJOR_AXIS":"6917.905","OBJECT_ID":"2021-104F","MEAN_MOTION_DDOT":"0.0000000000000","CENTER_NAME":"EARTH","ECCENTRICITY":"0.00025660","INCLINATION":"53.2166","PERIOD":"95.438","SITE":"AFETR","ELEMENT_SET_NO":"999","MEAN_MOTION":"15.08832000","FILE":"3410450","BSTAR":"0.00284840000000","MEAN_ANOMALY":"13.9098","OBJECT_TYPE":"PAYLOAD","REF_FRAME":"TEME","GP_ID":"201776921","MEAN_ELEMENT_THEORY":"SGP4","OBJECT_NAME":"STARLINK-3157","TLE_LINE1":"1 49413U 21104F   22111.91667824  .00045327  00000-0  28484-2 0  9998","TLE_LINE2":"2 49413  53.2166 103.7606 0002566  40.6044  13.9098 15.08832000  3590","COUNTRY_CODE":"US","CLASSIFICATION_TYPE":"U","DECAY_DATE":null,"NORAD_CAT_ID":"49413","APOAPSIS":"541.545","ARG_OF_PERICENTER":"40.6044","PERIAPSIS":"537.995"},{"ELEMENT_SET_NO":"999","FILE":"3410450","MEAN_MOTION":"15.08841437","BSTAR":"0.00033093000000","MEAN_ANOMALY":"339.4408","OBJECT_TYPE":"PAYLOAD","REF_FRAME":"TEME","GP_ID":"201777172","MEAN_ELEMENT_THEORY":"SGP4","OBJECT_NAME":"STARLINK-3146","TLE_LINE2":"2 49414  53.2145 113.7544 0002501  40.1041 339.4408 15.08841437  3596","COUNTRY_CODE":"US","TLE_LINE1":"1 49414U 21104G   22111.91667824  .00004983  00000-0  33093-3 0  9995","DECAY_DATE":null,"CLASSIFICATION_TYPE":"U","NORAD_CAT_ID":"49414","APOAPSIS":"541.471","PERIAPSIS":"538.011","ARG_OF_PERICENTER":"40.1041","REV_AT_EPOCH":"359","EPHEMERIS_TYPE":"0","TIME_SYSTEM":"UTC","RCS_SIZE":"LARGE","EPOCH":"2022-04-21T22:00:00.999936","MEAN_MOTION_DOT":"0.00004983","LAUNCH_DATE":"2021-11-13","RA_OF_ASC_NODE":"113.7544","SEMIMAJOR_AXIS":"6917.876","OBJECT_ID":"2021-104G","CENTER_NAME":"EARTH","MEAN_MOTION_DDOT":"0.0000000000000","ECCENTRICITY":"0.00025010","INCLINATION":"53.2145","PERIOD":"95.437","SITE":"AFETR"},{"MEAN_ELEMENT_THEORY":"SGP4","COUNTRY_CODE":"US","TLE_LINE2":"2 49415  53.2166 103.7607 0002774  35.5770  38.9983 15.08818360  3596","TLE_LINE1":"1 49415U 21104H   22111.91667824  .00034232  00000-0  21597-2 0  9991","OBJECT_NAME":"STARLINK-3159","CLASSIFICATION_TYPE":"U","DECAY_DATE":null,"NORAD_CAT_ID":"49415","PERIAPSIS":"537.892","ARG_OF_PERICENTER":"35.5770","APOAPSIS":"541.731","MEAN_MOTION":"15.08818360","FILE":"3410450","ELEMENT_SET_NO":"999","MEAN_ANOMALY":"38.9983","OBJECT_TYPE":"PAYLOAD","REF_FRAME":"TEME","BSTAR":"0.00215970000000","GP_ID":"201777918","CENTER_NAME":"EARTH","MEAN_MOTION_DDOT":"0.0000000000000","SEMIMAJOR_AXIS":"6917.947","OBJECT_ID":"2021-104H","INCLINATION":"53.2166","ECCENTRICITY":"0.00027740","SITE":"AFETR","PERIOD":"95.439","EPHEMERIS_TYPE":"0","TIME_SYSTEM":"UTC","REV_AT_EPOCH":"359","EPOCH":"2022-04-21T22:00:00.999936","RCS_SIZE":"LARGE","LAUNCH_DATE":"2021-11-13","MEAN_MOTION_DOT":"0.00034232","RA_OF_ASC_NODE":"103.7607"},{"TIME_SYSTEM":"UTC","EPHEMERIS_TYPE":"0","REV_AT_EPOCH":"359","EPOCH":"2022-04-21T22:00:00.999936","RCS_SIZE":"LARGE","LAUNCH_DATE":"2021-11-13","MEAN_MOTION_DOT":"0.00009929","RA_OF_ASC_NODE":"113.7452","CENTER_NAME":"EARTH","MEAN_MOTION_DDOT":"0.0000000000000","SEMIMAJOR_AXIS":"6917.912","OBJECT_ID":"2021-104J","INCLINATION":"53.2150","ECCENTRICITY":"0.00024590","SITE":"AFETR","PERIOD":"95.438","MEAN_MOTION":"15.08829787","FILE":"3410450","ELEMENT_SET_NO":"999","MEAN_ANOMALY":"27.4117","OBJECT_TYPE":"PAYLOAD","REF_FRAME":"TEME","BSTAR":"0.00064122000000","GP_ID":"201776171","MEAN_ELEMENT_THEORY":"SGP4","TLE_LINE2":"2 49416  53.2150 113.7452 0002459  32.1748  27.4117 15.08829787  3594","COUNTRY_CODE":"US","TLE_LINE1":"1 49416U 21104J   22111.91667824  .00009929  00000-0  64122-3 0  9999","OBJECT_NAME":"STARLINK-3133","DECAY_DATE":null,"CLASSIFICATION_TYPE":"U","NORAD_CAT_ID":"49416","PERIAPSIS":"538.075","ARG_OF_PERICENTER":"32.1748","APOAPSIS":"541.478"},{"TLE_LINE2":"2 49417  53.2158 104.7252 0002782  38.0840 322.0349 15.08848945 25804","COUNTRY_CODE":"US","TLE_LINE1":"1 49417U 21104K   22111.70059208  .00000152  00000-0  27643-4 0  9995","OBJECT_NAME":"STARLINK-3154","MEAN_ELEMENT_THEORY":"SGP4","PERIAPSIS":"537.794","ARG_OF_PERICENTER":"38.0840","APOAPSIS":"541.643","DECAY_DATE":null,"CLASSIFICATION_TYPE":"U","NORAD_CAT_ID":"49417","OBJECT_TYPE":"PAYLOAD","REF_FRAME":"TEME","MEAN_ANOMALY":"322.0349","BSTAR":"0.00002764300000","FILE":"3410450","MEAN_MOTION":"15.08848945","ELEMENT_SET_NO":"999","GP_ID":"201776421","CENTER_NAME":"EARTH","MEAN_MOTION_DDOT":"0.0000000000000","OBJECT_ID":"2021-104K","SEMIMAJOR_AXIS":"6917.853","SITE":"AFETR","PERIOD":"95.437","INCLINATION":"53.2158","ECCENTRICITY":"0.00027820","EPOCH":"2022-04-21T16:48:51.155712","RCS_SIZE":"LARGE","EPHEMERIS_TYPE":"0","TIME_SYSTEM":"UTC","REV_AT_EPOCH":"2580","RA_OF_ASC_NODE":"104.7252","LAUNCH_DATE":"2021-11-13","MEAN_MOTION_DOT":"0.00000152"},{"DECAY_DATE":null,"NORAD_CAT_ID":"49418","CLASSIFICATION_TYPE":"U","APOAPSIS":"541.596","PERIAPSIS":"538.018","ARG_OF_PERICENTER":"30.9037","MEAN_ELEMENT_THEORY":"SGP4","OBJECT_NAME":"STARLINK-3111","TLE_LINE2":"2 49418  53.2167 113.7456 0002586  30.9037  48.6460 15.08819876  3590","COUNTRY_CODE":"US","TLE_LINE1":"1 49418U 21104L   22111.91667824  .00038627  00000-0  24331-2 0  9995","GP_ID":"201777673","ELEMENT_SET_NO":"999","MEAN_MOTION":"15.08819876","FILE":"3410450","BSTAR":"0.00243310000000","REF_FRAME":"TEME","OBJECT_TYPE":"PAYLOAD","MEAN_ANOMALY":"48.6460","ECCENTRICITY":"0.00025860","INCLINATION":"53.2167","PERIOD":"95.439","SITE":"AFETR","SEMIMAJOR_AXIS":"6917.942","OBJECT_ID":"2021-104L","CENTER_NAME":"EARTH","MEAN_MOTION_DDOT":"0.0000000000000","MEAN_MOTION_DOT":"0.00038627","LAUNCH_DATE":"2021-11-13","RA_OF_ASC_NODE":"113.7456","REV_AT_EPOCH":"359","EPHEMERIS_TYPE":"0","TIME_SYSTEM":"UTC","RCS_SIZE":"LARGE","EPOCH":"2022-04-21T22:00:00.999936"}];
